PROMETHEUS 2-1          
1 41854U 16067G   23278.94001435  .00019231  00000+0  12491-2 0  9994
2 41854  98.0814  74.0189 0015776 201.3889 158.6680 15.07983212377166
PROMETHEUS 2-3          
1 41855U 16067H   23279.39879434  .00018999  00000+0  12351-2 0  9992
2 41855  98.0734  74.2448 0013267 209.5509 150.4969 15.07984085377237
INS-1B                  
1 41954U 17008G   23279.17807977  .01405104  12193-2  20457-2 0  9991
2 41954  97.1692 343.0654 0007147 263.6195  96.4273 16.05472688370306
DIDO-2                  
1 42000U 17008BE  23279.12104521  .00043899  00000+0  91628-3 0  9992
2 42000  97.1883 333.7365 0004641   8.7642 351.3687 15.45396762369038
PEASSS                  
1 42015U 17008BV  23279.17552167  .00190522  00000+0  15300-2 0  9994
2 42015  97.1881 344.0834 0001993 291.1042  69.0007 15.70405231370151
UCLSAT                  
1 42765U 17036A   23279.33459110  .00230315  00000+0  17084-2 0  9995
2 42765  97.1246 318.7395 0003372  66.4188 293.7430 15.72191289350617
AALTO-1                 
1 42775U 17036L   23278.82669425  .00039063  00000+0  96148-3 0  9997
2 42775  97.1435 305.9644 0010706  71.7128 288.5283 15.40442276349521
URSA MAIOR              
1 42776U 17036M   23278.85124108  .00046962  00000+0  10493-2 0  9999
2 42776  97.1439 307.7199 0009995  68.0353 292.1956 15.43323083349624
DIAMOND RED             
1 42783U 17036U   23278.82130681  .00060552  00000+0  11523-2 0  9993
2 42783  97.1399 311.5692 0008259  70.9520 289.2625 15.47987737349860
PEGASUS                 
1 42784U 17036V   23278.86118062  .00123937  00000+0  14788-2 0  9990
2 42784  97.1339 315.7353 0005542  62.2818 297.9001 15.60624230350150
DIAMOND GREEN           
1 42785U 17036W   23279.36575319  .00069832  00000+0  12338-2 0  9991
2 42785  97.1377 312.5306 0007817  71.5710 288.6392 15.50079586349961
DIAMOND BLUE            
1 42786U 17036X   23279.05126920  .00058243  00000+0  10783-2 0  9994
2 42786  97.1390 312.0586 0007997  68.5382 291.6721 15.48791532349905
SKCUBE                  
1 42789U 17036AA  23279.37464663  .00255248  00000+0  17207-2 0  9993
2 42789  97.1253 319.6228 0003073  62.8383 297.3196 15.74375278350456
ROBUSTA 1B              
1 42792U 17036AD  23278.64403297  .00727476  22080-3  21141-2 0  9997
2 42792  97.1176 321.2759 0001090 204.3043 155.8181 15.92931666350513
CICERO 6                
1 42793U 17036AE  23278.88316735  .00051413  00000+0  10840-2 0  9993
2 42793  97.1379 311.3837 0007808  72.5784 287.6319 15.45042577349951
CORVUS BC2              
1 42846U 17042X   23278.49627393  .00006477  00000+0  59071-3 0  9991
2 42846  97.3803 113.2411 0008301 190.3561 169.7491 14.95390623339202
CORVUS BC1              
1 42847U 17042Y   23278.48054719  .00005899  00000+0  53718-3 0  9996
2 42847  97.3791 113.5925 0008136 191.0219 169.0826 14.95485368339213
MIRATA                  
1 43015U 17073C   23278.64711193  .00030245  00000+0  17723-2 0  9990
2 43015  97.6161 163.3195 0203229  45.8968 315.8776 14.95944831317984
MAKERSAT 0              
1 43016U 17073D   23278.89814147  .00018943  00000+0  12156-2 0  9997
2 43016  97.6130 160.8662 0220765  56.9875 305.2346 14.90546741317794
CORVUS BC3              
1 43118U 18004H   23279.17964104  .00050665  00000+0  10877-2 0  9991
2 43118  97.3155 353.7531 0007167 103.9327 256.2719 15.44518292319132
CICERO 7                
1 43143U 18004AJ  23279.22277349  .00230623  00000+0  14339-2 0  9994
2 43143  97.3130   9.9745 0000677 208.1479 151.9750 15.76314947320106
GOMX-4B                 
1 43196U 18015E   23278.92099938  .00038267  00000+0  93015-3 0  9995
2 43196  97.5915  73.5197 0012902 166.5046 193.6547 15.40803670315979
GOMX-4A                 
1 43197U 18015F   23279.50660715  .00041343  00000+0  87533-3 0  9995
2 43197  97.5906  76.8548 0012193 157.5190 202.6595 15.44923665316255
CUBEBEL-1 (BSUSAT-1)    
1 43666U 18083E   23279.42029388  .00074938  00000+0  14417-2 0  9993
2 43666  97.3695 312.2753 0009355  84.8478 275.3840 15.47601308274344
CICERO 10               
1 43690U 18088A   23278.72358990  .00046322  00000+0  10867-2 0  9992
2 43690  85.0320 357.5313 0010544 170.5033 189.6421 15.41809145272495
PROXIMA I               
1 43694U 18088E   23279.47885509  .00054162  00000+0  10940-2 0  9993
2 43694  85.0243 352.1761 0012257 133.9863 226.2405 15.46200267272921
PROXIMA II              
1 43696U 18088G   23278.66242560  .00059555  00000+0  12141-2 0  9995
2 43696  85.0249 352.8096 0012326 136.7552 223.4673 15.45912175272798
SIRION PATHFINDER-2     
1 43759U 18099B   23279.12180035  .00007805  00000+0  63638-3 0  9996
2 43759  97.5621 337.6250 0016186  98.8617 261.4440 14.99627189264242
CORVUS BC4              
1 43767U 18099K   23279.12510707  .00007092  00000+0  58682-3 0  9999
2 43767  97.5570 335.4170 0012718 103.8555 256.4084 14.99129327264144
MOVE-II                 
1 43780U 18099Y   23278.74652805  .00023651  00000+0  16084-2 0  9995
2 43780  97.5584 340.5458 0009477 132.2938 227.9094 15.06292040264369
SPACEBEE-7              
1 43816U 18099BL  23278.70169873  .00016690  00000+0  11926-2 0  9994
2 43816  97.5868 341.4457 0013326  85.3183 274.9565 15.04482495263919
SPACEBEE-5              
1 43817U 18099BM  23279.02700054  .00096656  00000+0  35171-2 0  9991
2 43817  97.5793 352.0052 0002645  70.5676 289.5848 15.27831505264553
SPACEBEE-6              
1 43818U 18099BN  23278.68844958  .00028563  00000+0  17879-2 0  9992
2 43818  97.5771 344.0394 0012421  97.7250 262.5389 15.09284086264212
SHIELDS 1               
1 43850U 18104B   23278.91855497  .00015242  00000+0  51482-3 0  9990
2 43850  85.0220  95.3242 0010983 313.1073  46.9253 15.30484322267032
STF-1                   
1 43852U 18104D   23278.74502475  .00094634  00000+0  15181-2 0  9995
2 43852  85.0160  91.1119 0007425 302.7973  57.2570 15.52696370267493
ZACUBE-2                
1 43907U 18111AH  23279.55666146  .00064418  00000+0  12155-2 0  9995
2 43907  97.1161 156.9290 0013394 155.9460 204.2419 15.48154840266334
LUME 1                  
1 43908U 18111AJ  23279.44290104  .00085963  00000+0  11797-2 0  9990
2 43908  97.1157 161.6464 0011778 138.4327 221.7826 15.56971779266634
MOVE-IIB                
1 44398U 19038N   23279.41548509  .00187559  00000+0  23280-2 0  9999
2 44398  97.6666 268.8517 0006116 202.3833 157.7157 15.59363264235874
SONATE                  
1 44400U 19038Q   23278.91032747  .00021441  00000+0  88325-3 0  9998
2 44400  97.6962 259.1004 0017140 287.8924  72.0444 15.23990091235085
LUCKY-7                 
1 44406U 19038W   23279.41161899  .00027003  00000+0  98940-3 0  9995
2 44406  97.6917 261.4014 0014765 277.4036  82.5525 15.27880293235281
BEESAT 9                
1 44412U 19038AC  23278.92307753  .00054219  00000+0  15016-2 0  9999
2 44412  97.6836 263.7490 0009720 269.5941  90.4189 15.36746234235126
JAISAT-1                
1 44419U 19038F   23278.91856487  .00051437  00000+0  14165-2 0  9991
2 44419  97.6827 264.8652 0009208 264.5505  95.4688 15.36941246235508
DUCHIFAT-3              
1 44854U 19089C   23279.03912729  .00016727  00000+0  10563-2 0  9997
2 44854  36.9597 147.8035 0006020 159.8693 200.2289 15.08405289209560
EYESAT-NANO             
1 44877U 19092E   23279.45034387  .00286126  00000+0  31080-2 0  9996
2 44877  97.4500 113.6332 0003461  50.8884 309.2682 15.62547357211338
M2 PATHFINDER           
1 45727U 20037E   23279.01214101  .00006214  00000+0  57546-3 0  9992
2 45727  97.7643  92.4582 0010868 254.2632 105.7390 14.94813053177794
NETSAT-4                
1 46504U 20068U   23278.83212438  .00012494  00000+0  78679-3 0  9997
2 46504  97.7718 225.8557 0011944 143.8271 216.3768 15.09258329165581
NETSAT-3                
1 46505U 20068V   23278.81454988  .00014174  00000+0  89850-3 0  9994
2 46505  97.7694 225.5952 0010604 151.8941 208.2862 15.08998128165588
NETSAT-1                
1 46506U 20068W   23279.35106083  .00010350  00000+0  66722-3 0  9990
2 46506  97.7707 225.9660 0008826 158.1317 202.0289 15.08477466165654
NETSAT-2                
1 46507U 20068X   23279.43202072  .00011654  00000+0  73599-3 0  9993
2 46507  97.7707 226.1773 0008155 160.3824 199.7719 15.09204912165628
SAI-1 NANOCONNECT-2     
1 47701U 21015C   23279.23758098  .00225360  00000+0  19421-2 0  9999
2 47701  97.3723   6.2547 0005325 198.0297 162.0777 15.68568077145426
WILDTRACKCUBE-SIMBA     
1 47941U 21022K   23279.53003958  .00016990  00000+0  92918-3 0  9994
2 47941  97.4814 174.6216 0016866 316.9213  43.0697 15.14216582139848
BEESAT-6                
1 47957U 21022AB  23278.67059705  .00050995  00000+0  20626-2 0  9995
2 47957  97.4780 176.9361 0012353 312.6119  47.4076 15.24470438139738
SMOG-1                  
1 47964U 21022AJ  23279.25746666  .00045288  00000+0  17261-2 0  9997
2 47964  97.4836 179.9329 0010192 293.0490  66.9673 15.26510701138983
BCCSAT-1                
1 48041U 21022AK  23279.27872525  .00037761  00000+0  15824-2 0  9990
2 48041  97.4828 178.4330 0008726 296.2846  63.7494 15.23386350138868
BEESAT-5                
1 48083U 21022AM  23279.17222787  .00051503  00000+0  19506-2 0  9995
2 48083  97.4666 177.7877 0011022 308.4901  51.5348 15.26678268138984
BEESAT-7                
1 48084U 21022AN  23278.68938813  .00053709  00000+0  21187-2 0  9993
2 48084  97.4774 177.1720 0011735 310.8260  49.1959 15.25301851138477
BEESAT-8                
1 48085U 21022AP  23279.48993327  .00022668  00000+0  10832-2 0  9999
2 48085  97.4846 176.7543 0014595 311.1032  48.8941 15.18935100139069
LEDSAT                  
1 49069U 21073D   23279.46591410  .00017418  00000+0  89136-3 0  9994
2 49069  97.4719 348.5520 0024240  95.1114 265.2886 15.16428589117754
SPORT                   
1 55129U 98067UW  23278.93307085  .01528948  19718-2  10095-2 0  9991
2 55129  51.6145 101.8334 0008752 267.9766  92.0249 16.16803080 44075
